[{"OBJECT_NAME":"JINJUSAT-1B","OBJECT_ID":"2025-052A","EPOCH":"2026-03-09T15:55:38.242848","MEAN_MOTION":15.30194857,"ECCENTRICITY":0.00055504,"INCLINATION":97.4113,"RA_OF_ASC_NODE":325.4613,"ARG_OF_PERICENTER":82.193,"MEAN_ANOMALY":277.9941,"EPHEMERIS_TYPE":0,"CLASSIFICATION_TYPE":"U","NORAD_CAT_ID":63210,"ELEMENT_SET_NO":999,"REV_AT_EPOCH":5486,"BSTAR":0.00068430401,"MEAN_MOTION_DOT":0.00019955,"MEAN_MOTION_DDOT":0},{"OBJECT_NAME":"STARLINK-35713","OBJECT_ID":"2025-247P","EPOCH":"2026-03-09T15:38:11.209632","MEAN_MOTION":15.30208969,"ECCENTRICITY":0.00016597,"INCLINATION":53.1606,"RA_OF_ASC_NODE":191.208,"ARG_OF_PERICENTER":32.0092,"MEAN_ANOMALY":328.101,"EPHEMERIS_TYPE":0,"CLASSIFICATION_TYPE":"U","NORAD_CAT_ID":66278,"ELEMENT_SET_NO":999,"REV_AT_EPOCH":2108,"BSTAR":0.0010005816,"MEAN_MOTION_DOT":0.00029401,"MEAN_MOTION_DDOT":0}]
