JINJUSAT-1B             
1 63210U 25052A   26068.66363707  .00019955  00000+0  68430-3 0  9998
2 63210  97.4113 325.4613 0005550  82.1930 277.9941 15.30194857 54866
STARLINK-35713          
1 66278U 25247P   26068.65151863  .00029401  00000+0  10006-2 0  9990
2 66278  53.1606 191.2080 0001659  32.0092 328.1010 15.30208969 21089
